start=new Date('2023-03-10T00:00:00.000Z').valueOf();
sats=[{"SEMIMAJOR_AXIS":"6917.835","TLE_LINE1":"1 51888U 22022AN  23068.75797316  .00004341  00000-0  29057-3 0  9990","ECCENTRICITY":"0.00020870","SITE":"AFETR","OBJECT_TYPE":"PAYLOAD","TLE_LINE2":"2 51888  53.2095 238.9477 0002087  90.4022 269.7209 15.08854970 57802","GP_ID":"227769192","REF_FRAME":"TEME","EPHEMERIS_TYPE":"0","FILE":"3855951","MEAN_MOTION":"15.08854970","APOAPSIS":"541.143","OBJECT_NAME":"STARLINK-3536","CLASSIFICATION_TYPE":"U","TIME_SYSTEM":"UTC","INCLINATION":"53.2095","BSTAR":"0.00029057000000","EPOCH":"2023-03-09T18:11:28.881024","PERIAPSIS":"538.256","COUNTRY_CODE":"US","REV_AT_EPOCH":"5780","LAUNCH_DATE":"2022-03-03","PERIOD":"95.437","MEAN_ELEMENT_THEORY":"SGP4","MEAN_MOTION_DOT":"0.00004341","RA_OF_ASC_NODE":"238.9477","RCS_SIZE":"LARGE","ELEMENT_SET_NO":"999","NORAD_CAT_ID":"51888","MEAN_MOTION_DDOT":"0.0000000000000","DECAY_DATE":null,"OBJECT_ID":"2022-022AN","CENTER_NAME":"EARTH","ARG_OF_PERICENTER":"90.4022","MEAN_ANOMALY":"269.7209"},{"MEAN_ELEMENT_THEORY":"SGP4","PERIOD":"95.437","REV_AT_EPOCH":"5779","LAUNCH_DATE":"2022-03-03","COUNTRY_CODE":"US","RCS_SIZE":"LARGE","RA_OF_ASC_NODE":"239.0314","MEAN_MOTION_DOT":"-0.00001231","DECAY_DATE":null,"MEAN_MOTION_DDOT":"0.0000000000000","NORAD_CAT_ID":"51889","ELEMENT_SET_NO":"999","MEAN_ANOMALY":"274.6716","CENTER_NAME":"EARTH","ARG_OF_PERICENTER":"85.4447","OBJECT_ID":"2022-022AP","ECCENTRICITY":"0.00014990","SITE":"AFETR","SEMIMAJOR_AXIS":"6917.868","TLE_LINE1":"1 51889U 22022AP  23068.73957591 -.00001231  00000-0 -59257-4 0  9995","REF_FRAME":"TEME","GP_ID":"227769947","TLE_LINE2":"2 51889  53.2148 239.0314 0001499  85.4447 274.6716 15.08843963 57791","OBJECT_TYPE":"PAYLOAD","OBJECT_NAME":"STARLINK-3547","APOAPSIS":"540.770","FILE":"3855951","MEAN_MOTION":"15.08843963","EPHEMERIS_TYPE":"0","PERIAPSIS":"538.696","EPOCH":"2023-03-09T17:44:59.358624","BSTAR":"-0.00005925700000","INCLINATION":"53.2148","CLASSIFICATION_TYPE":"U","TIME_SYSTEM":"UTC"},{"RA_OF_ASC_NODE":"238.9991","MEAN_MOTION_DOT":"0.00020895","RCS_SIZE":"LARGE","PERIOD":"95.435","MEAN_ELEMENT_THEORY":"SGP4","COUNTRY_CODE":"US","LAUNCH_DATE":"2022-03-03","REV_AT_EPOCH":"5779","ARG_OF_PERICENTER":"85.9784","CENTER_NAME":"EARTH","MEAN_ANOMALY":"274.1357","OBJECT_ID":"2022-022AQ","ELEMENT_SET_NO":"999","MEAN_MOTION_DDOT":"0.0000000000000","NORAD_CAT_ID":"51890","DECAY_DATE":null,"GP_ID":"227768697","TLE_LINE2":"2 51890  53.2116 238.9991 0001305  85.9784 274.1357 15.08888112 57793","REF_FRAME":"TEME","OBJECT_TYPE":"PAYLOAD","SEMIMAJOR_AXIS":"6917.733","TLE_LINE1":"1 51890U 22022AQ  23068.74692349  .00020895  00000-0  13253-2 0  9994","SITE":"AFETR","ECCENTRICITY":"0.00013050","BSTAR":"0.00132530000000","PERIAPSIS":"538.696","EPOCH":"2023-03-09T17:55:34.189536","TIME_SYSTEM":"UTC","CLASSIFICATION_TYPE":"U","INCLINATION":"53.2116","APOAPSIS":"540.501","OBJECT_NAME":"STARLINK-3519","EPHEMERIS_TYPE":"0","FILE":"3855951","MEAN_MOTION":"15.08888112"},{"RCS_SIZE":"LARGE","MEAN_MOTION_DOT":"0.00042008","RA_OF_ASC_NODE":"238.4533","PERIOD":"95.435","MEAN_ELEMENT_THEORY":"SGP4","LAUNCH_DATE":"2022-03-03","REV_AT_EPOCH":"5786","COUNTRY_CODE":"US","MEAN_ANOMALY":"283.9964","ARG_OF_PERICENTER":"76.1164","CENTER_NAME":"EARTH","OBJECT_ID":"2022-022AR","DECAY_DATE":null,"ELEMENT_SET_NO":"999","MEAN_MOTION_DDOT":"0.0000000000000","NORAD_CAT_ID":"51891","REF_FRAME":"TEME","GP_ID":"227768946","TLE_LINE2":"2 51891  53.2135 238.4533 0001216  76.1164 283.9964 15.08878638 57869","OBJECT_TYPE":"PAYLOAD","ECCENTRICITY":"0.00012160","SITE":"AFETR","SEMIMAJOR_AXIS":"6917.762","TLE_LINE1":"1 51891U 22022AR  23068.86837888  .00042008  00000-0  26391-2 0  9994","EPOCH":"2023-03-09T20:50:27.935232","PERIAPSIS":"538.786","BSTAR":"0.00263910000000","INCLINATION":"53.2135","CLASSIFICATION_TYPE":"U","TIME_SYSTEM":"UTC","OBJECT_NAME":"STARLINK-3549","APOAPSIS":"540.468","EPHEMERIS_TYPE":"0","MEAN_MOTION":"15.08878638","FILE":"3855951"},{"APOAPSIS":"540.444","OBJECT_NAME":"STARLINK-3587","EPHEMERIS_TYPE":"0","FILE":"3855951","MEAN_MOTION":"15.08870166","BSTAR":"0.00067024000000","EPOCH":"2023-03-09T21:01:03.300960","PERIAPSIS":"538.862","CLASSIFICATION_TYPE":"U","TIME_SYSTEM":"UTC","INCLINATION":"53.2120","SEMIMAJOR_AXIS":"6917.788","TLE_LINE1":"1 51892U 22022AS  23068.87573265  .00010404  00000-0  67024-3 0  9996","SITE":"AFETR","ECCENTRICITY":"0.00011430","GP_ID":"227769693","TLE_LINE2":"2 51892  53.2120 238.4204 0001143  74.0503 286.0615 15.08870166 57812","REF_FRAME":"TEME","OBJECT_TYPE":"PAYLOAD","ELEMENT_SET_NO":"999","NORAD_CAT_ID":"51892","MEAN_MOTION_DDOT":"0.0000000000000","DECAY_DATE":null,"CENTER_NAME":"EARTH","ARG_OF_PERICENTER":"74.0503","MEAN_ANOMALY":"286.0615","OBJECT_ID":"2022-022AS","PERIOD":"95.436","MEAN_ELEMENT_THEORY":"SGP4","COUNTRY_CODE":"US","LAUNCH_DATE":"2022-03-03","REV_AT_EPOCH":"5781","MEAN_MOTION_DOT":"0.00010404","RA_OF_ASC_NODE":"238.4204","RCS_SIZE":"LARGE"},{"INCLINATION":"53.2143","CLASSIFICATION_TYPE":"U","TIME_SYSTEM":"UTC","EPOCH":"2023-03-09T20:39:51.873984","PERIAPSIS":"538.839","BSTAR":"0.00138770000000","FILE":"3855951","MEAN_MOTION":"15.08871485","EPHEMERIS_TYPE":"0","OBJECT_NAME":"STARLINK-3579","APOAPSIS":"540.459","OBJECT_TYPE":"PAYLOAD","REF_FRAME":"TEME","TLE_LINE2":"2 51893  53.2143 238.4869 0001171  63.0526 297.0585 15.08871485 57878","GP_ID":"227769447","SITE":"AFETR","ECCENTRICITY":"0.00011710","TLE_LINE1":"1 51893U 22022AT  23068.86101706  .00021885  00000-0  13877-2 0  9994","SEMIMAJOR_AXIS":"6917.784","OBJECT_ID":"2022-022AT","MEAN_ANOMALY":"297.0585","CENTER_NAME":"EARTH","ARG_OF_PERICENTER":"63.0526","DECAY_DATE":null,"MEAN_MOTION_DDOT":"0.0000000000000","NORAD_CAT_ID":"51893","ELEMENT_SET_NO":"999","RCS_SIZE":"LARGE","RA_OF_ASC_NODE":"238.4869","MEAN_MOTION_DOT":"0.00021885","REV_AT_EPOCH":"5787","LAUNCH_DATE":"2022-03-03","COUNTRY_CODE":"US","MEAN_ELEMENT_THEORY":"SGP4","PERIOD":"95.436"},{"INCLINATION":"53.2148","TIME_SYSTEM":"UTC","CLASSIFICATION_TYPE":"U","PERIAPSIS":"538.888","EPOCH":"2023-03-09T20:45:09.396576","BSTAR":"0.00026213000000","MEAN_MOTION":"15.08857030","FILE":"3855951","EPHEMERIS_TYPE":"0","OBJECT_NAME":"STARLINK-3595","APOAPSIS":"540.499","OBJECT_TYPE":"PAYLOAD","REF_FRAME":"TEME","TLE_LINE2":"2 51894  53.2148 238.4691 0001164  88.3930 271.7195 15.08857030 57874","GP_ID":"227768198","ECCENTRICITY":"0.00011640","SITE":"AFETR","TLE_LINE1":"1 51894U 22022AU  23068.86469209  .00003888  00000-0  26213-3 0  9992","SEMIMAJOR_AXIS":"6917.828","OBJECT_ID":"2022-022AU","MEAN_ANOMALY":"271.7195","ARG_OF_PERICENTER":"88.3930","CENTER_NAME":"EARTH","DECAY_DATE":null,"MEAN_MOTION_DDOT":"0.0000000000000","NORAD_CAT_ID":"51894","ELEMENT_SET_NO":"999","RCS_SIZE":"LARGE","RA_OF_ASC_NODE":"238.4691","MEAN_MOTION_DOT":"0.00003888","REV_AT_EPOCH":"5787","LAUNCH_DATE":"2022-03-03","COUNTRY_CODE":"US","MEAN_ELEMENT_THEORY":"SGP4","PERIOD":"95.436"},{"EPHEMERIS_TYPE":"0","FILE":"3855951","MEAN_MOTION":"15.08852988","APOAPSIS":"540.303","OBJECT_NAME":"STARLINK-3594","CLASSIFICATION_TYPE":"U","TIME_SYSTEM":"UTC","INCLINATION":"53.2136","BSTAR":"0.00031729000000","PERIAPSIS":"539.108","EPOCH":"2023-03-09T20:34:33.686112","SEMIMAJOR_AXIS":"6917.841","TLE_LINE1":"1 51895U 22022AV  23068.85733433  .00004767  00000-0  31729-3 0  9990","SITE":"AFETR","ECCENTRICITY":"0.00008640","OBJECT_TYPE":"PAYLOAD","GP_ID":"227768446","TLE_LINE2":"2 51895  53.2136 238.5018 0000864  79.3553 280.7536 15.08852988 57813","REF_FRAME":"TEME","ELEMENT_SET_NO":"999","MEAN_MOTION_DDOT":"0.0000000000000","NORAD_CAT_ID":"51895","DECAY_DATE":null,"OBJECT_ID":"2022-022AV","CENTER_NAME":"EARTH","ARG_OF_PERICENTER":"79.3553","MEAN_ANOMALY":"280.7536","COUNTRY_CODE":"US","LAUNCH_DATE":"2022-03-03","REV_AT_EPOCH":"5781","PERIOD":"95.437","MEAN_ELEMENT_THEORY":"SGP4","MEAN_MOTION_DOT":"0.00004767","RA_OF_ASC_NODE":"238.5018","RCS_SIZE":"LARGE"},{"NORAD_CAT_ID":"51896","MEAN_MOTION_DDOT":"0.0000000000000","ELEMENT_SET_NO":"999","DECAY_DATE":null,"CENTER_NAME":"EARTH","ARG_OF_PERICENTER":"71.5853","MEAN_ANOMALY":"288.5270","OBJECT_ID":"2022-022AW","MEAN_ELEMENT_THEORY":"SGP4","PERIOD":"95.436","COUNTRY_CODE":"US","LAUNCH_DATE":"2022-03-03","REV_AT_EPOCH":"5786","MEAN_MOTION_DOT":"0.00012614","RA_OF_ASC_NODE":"238.4984","RCS_SIZE":"LARGE","APOAPSIS":"540.518","OBJECT_NAME":"STARLINK-3593","FILE":"3855951","MEAN_MOTION":"15.08858281","EPHEMERIS_TYPE":"0","BSTAR":"0.00080878000000","EPOCH":"2023-03-09T20:35:56.643072","PERIAPSIS":"538.861","CLASSIFICATION_TYPE":"U","TIME_SYSTEM":"UTC","INCLINATION":"53.2135","SEMIMAJOR_AXIS":"6917.825","TLE_LINE1":"1 51896U 22022AW  23068.85829448  .00012614  00000-0  80878-3 0  9992","ECCENTRICITY":"0.00011980","SITE":"AFETR","TLE_LINE2":"2 51896  53.2135 238.4984 0001198  71.5853 288.5270 15.08858281 57860","GP_ID":"227769193","REF_FRAME":"TEME","OBJECT_TYPE":"PAYLOAD"},{"RCS_SIZE":"LARGE","RA_OF_ASC_NODE":"238.2218","MEAN_MOTION_DOT":"0.00037513","LAUNCH_DATE":"2022-03-03","REV_AT_EPOCH":"5782","COUNTRY_CODE":"US","PERIOD":"95.436","MEAN_ELEMENT_THEORY":"SGP4","OBJECT_ID":"2022-022AX","MEAN_ANOMALY":"278.3786","ARG_OF_PERICENTER":"81.7350","CENTER_NAME":"EARTH","DECAY_DATE":null,"ELEMENT_SET_NO":"999","NORAD_CAT_ID":"51897","MEAN_MOTION_DDOT":"0.0000000000000","OBJECT_TYPE":"PAYLOAD","REF_FRAME":"TEME","GP_ID":"227769948","TLE_LINE2":"2 51897  53.2128 238.2218 0001267  81.7350 278.3786 15.08870374 57825","SITE":"AFETR","ECCENTRICITY":"0.00012670","TLE_LINE1":"1 51897U 22022AX  23068.91989769  .00037513  00000-0  23606-2 0  9993","SEMIMAJOR_AXIS":"6917.788","INCLINATION":"53.2128","CLASSIFICATION_TYPE":"U","TIME_SYSTEM":"UTC","EPOCH":"2023-03-09T22:04:39.160416","PERIAPSIS":"538.776","BSTAR":"0.00236060000000","EPHEMERIS_TYPE":"0","FILE":"3855951","MEAN_MOTION":"15.08870374","OBJECT_NAME":"STARLINK-3598","APOAPSIS":"540.529"}];
